{
  "type": "FeatureCollection",
  "generator": "overpass-turbo",
  "copyright": "The data included in this document is from www.openstreetmap.org. The data is made available under ODbL.",
  "timestamp": "2026-04-13T19:09:30Z",
  "features": [
    {
      "type": "Feature",
      "properties": {
        "@id": "node/1234844162",
        "amenity": "fuel",
        "ele": "62.85",
        "source": "gpx"
      },
      "geometry": {
        "type": "Point",
        "coordinates": [
          72.5531143,
          23.156471
        ]
      },
      "id": "node/1234844162"
    },
    {
      "type": "Feature",
      "properties": {
        "@id": "node/1234844704",
        "amenity": "fuel",
        "brand": "Hindustan Petroleum",
        "ele": "64.77",
        "fuel:gasoline": "yes",
        "name": "Hindustan Petroleum",
        "not:brand:wikidata": "Q1619375",
        "operator": "Hindustan Petroleum",
        "source": "gpx"
      },
      "geometry": {
        "type": "Point",
        "coordinates": [
          72.5737935,
          23.1768017
        ]
      },
      "id": "node/1234844704"
    },
    {
      "type": "Feature",
      "properties": {
        "@id": "node/1234846882",
        "amenity": "fuel",
        "ele": "56.12",
        "source:ele": "gpx"
      },
      "geometry": {
        "type": "Point",
        "coordinates": [
          72.6308627,
          23.1053991
        ]
      },
      "id": "node/1234846882"
    },
    {
      "type": "Feature",
      "properties": {
        "@id": "node/1746677973",
        "amenity": "fuel",
        "brand": "Hindustan Petroleum",
        "brand:wikidata": "Q1619375",
        "name": "HP Fuel Station",
        "official_name": "Hindustan Petroleum",
        "operator": "HP"
      },
      "geometry": {
        "type": "Point",
        "coordinates": [
          72.5139509,
          23.0331106
        ]
      },
      "id": "node/1746677973"
    },
    {
      "type": "Feature",
      "properties": {
        "@id": "node/1781763832",
        "amenity": "fuel",
        "name": "Ansh Petrol Pump"
      },
      "geometry": {
        "type": "Point",
        "coordinates": [
          72.5644882,
          23.0045263
        ]
      },
      "id": "node/1781763832"
    },
    {
      "type": "Feature",
      "properties": {
        "@id": "node/1952553001",
        "amenity": "fuel",
        "brand": "Hindustan Petroleum",
        "name": "Akhbarnagar petrol pump"
      },
      "geometry": {
        "type": "Point",
        "coordinates": [
          72.5619985,
          23.0684998
        ]
      },
      "id": "node/1952553001"
    },
    {
      "type": "Feature",
      "properties": {
        "@id": "node/2377178512",
        "amenity": "fuel"
      },
      "geometry": {
        "type": "Point",
        "coordinates": [
          72.5841287,
          23.0263196
        ]
      },
      "id": "node/2377178512"
    },
    {
      "type": "Feature",
      "properties": {
        "@id": "node/3302227672",
        "amenity": "fuel",
        "brand": "Hindustan Petroleum",
        "fuel:diesel": "yes",
        "fuel:octane_80": "yes",
        "name": "Hindustan Petroleum Station",
        "operator": "Hindustan Petroleum"
      },
      "geometry": {
        "type": "Point",
        "coordinates": [
          72.5638517,
          23.0120486
        ]
      },
      "id": "node/3302227672"
    },
    {
      "type": "Feature",
      "properties": {
        "@id": "node/3306683260",
        "amenity": "fuel",
        "brand": "Indian Oil"
      },
      "geometry": {
        "type": "Point",
        "coordinates": [
          72.5529832,
          23.0049181
        ]
      },
      "id": "node/3306683260"
    },
    {
      "type": "Feature",
      "properties": {
        "@id": "node/3306683612",
        "amenity": "fuel",
        "brand": "Indian Oil",
        "brand:wikidata": "Q1289348",
        "name": "Indian Oil"
      },
      "geometry": {
        "type": "Point",
        "coordinates": [
          72.5955759,
          23.0396523
        ]
      },
      "id": "node/3306683612"
    },
    {
      "type": "Feature",
      "properties": {
        "@id": "node/3393656497",
        "amenity": "fuel",
        "brand": "Adani",
        "name": "Adani CNG Gas Station",
        "operator": "Adani"
      },
      "geometry": {
        "type": "Point",
        "coordinates": [
          72.5864365,
          23.011445
        ]
      },
      "id": "node/3393656497"
    },
    {
      "type": "Feature",
      "properties": {
        "@id": "node/3898183127",
        "amenity": "fuel",
        "brand": "IOC",
        "name": "IOC"
      },
      "geometry": {
        "type": "Point",
        "coordinates": [
          72.6973521,
          23.1614522
        ]
      },
      "id": "node/3898183127"
    },
    {
      "type": "Feature",
      "properties": {
        "@id": "node/4254423389",
        "addr:postcode": "380015",
        "addr:street": "100 Ft. Road",
        "amenity": "fuel",
        "name": "Shell"
      },
      "geometry": {
        "type": "Point",
        "coordinates": [
          72.5124778,
          23.0121167
        ]
      },
      "id": "node/4254423389"
    },
    {
      "type": "Feature",
      "properties": {
        "@id": "node/4326504193",
        "addr:street": "Ashram Road",
        "amenity": "fuel",
        "name": "CNG Adani"
      },
      "geometry": {
        "type": "Point",
        "coordinates": [
          72.5644029,
          23.0135186
        ]
      },
      "id": "node/4326504193"
    },
    {
      "type": "Feature",
      "properties": {
        "@id": "node/4358631802",
        "amenity": "fuel",
        "fuel:cng": "yes"
      },
      "geometry": {
        "type": "Point",
        "coordinates": [
          72.6431616,
          23.0579511
        ]
      },
      "id": "node/4358631802"
    },
    {
      "type": "Feature",
      "properties": {
        "@id": "node/4358646485",
        "amenity": "fuel",
        "name": "Cng Petrol pump"
      },
      "geometry": {
        "type": "Point",
        "coordinates": [
          72.6319464,
          23.0523451
        ]
      },
      "id": "node/4358646485"
    },
    {
      "type": "Feature",
      "properties": {
        "@id": "node/4412725295",
        "addr:street": "Odhav Road",
        "amenity": "fuel",
        "name": "Petrol CNG pump"
      },
      "geometry": {
        "type": "Point",
        "coordinates": [
          72.6508243,
          23.0219685
        ]
      },
      "id": "node/4412725295"
    },
    {
      "type": "Feature",
      "properties": {
        "@id": "node/4483242065",
        "amenity": "fuel",
        "name": "Petrol pump Nava Naroda"
      },
      "geometry": {
        "type": "Point",
        "coordinates": [
          72.6678593,
          23.0797088
        ]
      },
      "id": "node/4483242065"
    },
    {
      "type": "Feature",
      "properties": {
        "@id": "node/4483474713",
        "addr:street": "Kasturba Gandhi Road",
        "amenity": "fuel",
        "name": "CNG Bharat petroleum"
      },
      "geometry": {
        "type": "Point",
        "coordinates": [
          72.5781297,
          23.0400891
        ]
      },
      "id": "node/4483474713"
    },
    {
      "type": "Feature",
      "properties": {
        "@id": "node/4731770043",
        "amenity": "fuel",
        "name": "Bharat Petroleum"
      },
      "geometry": {
        "type": "Point",
        "coordinates": [
          72.8191981,
          23.1697683
        ]
      },
      "id": "node/4731770043"
    },
    {
      "type": "Feature",
      "properties": {
        "@id": "node/4891804983",
        "amenity": "fuel",
        "brand": "Bharat Petroleum",
        "brand:wikidata": "Q854826",
        "name": "Bharat Petroleum"
      },
      "geometry": {
        "type": "Point",
        "coordinates": [
          72.5234735,
          23.076537
        ]
      },
      "id": "node/4891804983"
    },
    {
      "type": "Feature",
      "properties": {
        "@id": "node/5286955825",
        "addr:street": "Sardar Patel Ring Road",
        "amenity": "fuel",
        "name": "CNG gas station"
      },
      "geometry": {
        "type": "Point",
        "coordinates": [
          72.6862592,
          23.0846729
        ]
      },
      "id": "node/5286955825"
    },
    {
      "type": "Feature",
      "properties": {
        "@id": "node/5291854424",
        "amenity": "fuel",
        "name": "CNG stattion"
      },
      "geometry": {
        "type": "Point",
        "coordinates": [
          72.49878,
          22.9359318
        ]
      },
      "id": "node/5291854424"
    },
    {
      "type": "Feature",
      "properties": {
        "@id": "node/5387295121",
        "addr:street": "Sardar Patel Ring Road",
        "amenity": "fuel",
        "name": "Cng and petrol pump"
      },
      "geometry": {
        "type": "Point",
        "coordinates": [
          72.6734332,
          23.0289447
        ]
      },
      "id": "node/5387295121"
    },
    {
      "type": "Feature",
      "properties": {
        "@id": "node/5527662484",
        "amenity": "fuel",
        "brand": "Bharat Petroleum"
      },
      "geometry": {
        "type": "Point",
        "coordinates": [
          72.5658082,
          23.0140063
        ]
      },
      "id": "node/5527662484"
    },
    {
      "type": "Feature",
      "properties": {
        "@id": "node/5698657522",
        "amenity": "fuel",
        "name": "Cng station"
      },
      "geometry": {
        "type": "Point",
        "coordinates": [
          72.5882763,
          23.1619162
        ]
      },
      "id": "node/5698657522"
    },
    {
      "type": "Feature",
      "properties": {
        "@id": "node/5753318022",
        "addr:street": "Ambli Bopal Road",
        "amenity": "fuel",
        "brand": "Indian Oil",
        "brand:wikidata": "Q1289348",
        "brand:wikipedia": "en:Indian Oil Corporation",
        "name": "Indian oil CNG n Petrol"
      },
      "geometry": {
        "type": "Point",
        "coordinates": [
          72.4750283,
          23.0292807
        ]
      },
      "id": "node/5753318022"
    },
    {
      "type": "Feature",
      "properties": {
        "@id": "node/6520979438",
        "addr:city": "Kudasan",
        "addr:postcode": "382421",
        "amenity": "fuel",
        "brand": "Indian Oil",
        "fuel:Petrol": "yes",
        "fuel:diesel": "yes",
        "name": "Kishan Petroleum",
        "opening_hours": "Mo-Su 06:00-23:00",
        "self_service": "no"
      },
      "geometry": {
        "type": "Point",
        "coordinates": [
          72.6271713,
          23.1748208
        ]
      },
      "id": "node/6520979438"
    },
    {
      "type": "Feature",
      "properties": {
        "@id": "node/8694181658",
        "amenity": "fuel"
      },
      "geometry": {
        "type": "Point",
        "coordinates": [
          72.7456444,
          22.8655534
        ]
      },
      "id": "node/8694181658"
    },
    {
      "type": "Feature",
      "properties": {
        "@id": "node/10177874699",
        "amenity": "fuel",
        "brand": "Shell",
        "brand:wikidata": "Q110716465",
        "name": "Shell"
      },
      "geometry": {
        "type": "Point",
        "coordinates": [
          72.6269447,
          22.9871408
        ]
      },
      "id": "node/10177874699"
    },
    {
      "type": "Feature",
      "properties": {
        "@id": "node/12129479158",
        "amenity": "fuel",
        "brand": "Indian Oil",
        "brand:wikidata": "Q1289348",
        "fuel:cng": "yes",
        "fuel:diesel": "yes",
        "fuel:petrol": "yes",
        "name": "Indian Oil"
      },
      "geometry": {
        "type": "Point",
        "coordinates": [
          72.4576817,
          22.8671793
        ]
      },
      "id": "node/12129479158"
    },
    {
      "type": "Feature",
      "properties": {
        "@id": "node/12526081066",
        "amenity": "fuel",
        "brand": "Indian Oil",
        "brand:wikidata": "Q1289348",
        "name": "Indian Oil"
      },
      "geometry": {
        "type": "Point",
        "coordinates": [
          72.5562557,
          23.0575051
        ]
      },
      "id": "node/12526081066"
    },
    {
      "type": "Feature",
      "properties": {
        "@id": "node/12584857660",
        "amenity": "fuel",
        "brand": "Indian Oil",
        "brand:wikidata": "Q1289348",
        "name": "Indian Oil"
      },
      "geometry": {
        "type": "Point",
        "coordinates": [
          72.8073493,
          22.8609899
        ]
      },
      "id": "node/12584857660"
    }
  ]
}